{
  "links" : {
    "next" : "https://api.nasa.gov/neo/rest/v1/feed?start_date=2005-09-23&end_date=2005-09-23&detailed=true&api_key=t0TVs3DtDT2H8Oy2Zy8m2eVrNsAVKAexjcZXUckd",
    "prev" : "https://api.nasa.gov/neo/rest/v1/feed?start_date=2005-09-21&end_date=2005-09-21&detailed=true&api_key=t0TVs3DtDT2H8Oy2Zy8m2eVrNsAVKAexjcZXUckd",
    "self" : "https://api.nasa.gov/neo/rest/v1/feed?start_date=2005-09-22&end_date=2005-09-22&detailed=true&api_key=t0TVs3DtDT2H8Oy2Zy8m2eVrNsAVKAexjcZXUckd"
  },
  "element_count" : 7,
  "near_earth_objects" : {
    "2005-09-22" : [ {
      "links" : {
        "self" : "https://api.nasa.gov/neo/rest/v1/neo/3599302?api_key=t0TVs3DtDT2H8Oy2Zy8m2eVrNsAVKAexjcZXUckd"
      },
      "neo_reference_id" : "3599302",
      "name" : "(2012 CQ36)",
      "nasa_jpl_url" : "http://ssd.jpl.nasa.gov/sbdb.cgi?sstr=3599302",
      "absolute_magnitude_h" : 21.9,
      "estimated_diameter" : {
        "kilometers" : {
          "estimated_diameter_min" : 0.1108038821,
          "estimated_diameter_max" : 0.2477650126
        },
        "meters" : {
          "estimated_diameter_min" : 110.8038821264,
          "estimated_diameter_max" : 247.7650126055
        },
        "miles" : {
          "estimated_diameter_min" : 0.068850319,
          "estimated_diameter_max" : 0.1539539936
        },
        "feet" : {
          "estimated_diameter_min" : 363.5298086356,
          "estimated_diameter_max" : 812.8773639568
        }
      },
      "is_potentially_hazardous_asteroid" : false,
      "close_approach_data" : [ {
        "close_approach_date" : "2005-09-22",
        "epoch_date_close_approach" : 1127372400000,
        "relative_velocity" : {
          "kilometers_per_second" : "29.1874184333",
          "kilometers_per_hour" : "105074.7063598541",
          "miles_per_hour" : "65289.3362934327"
        },
        "miss_distance" : {
          "astronomical" : "0.4878012932",
          "lunar" : "189.754699707",
          "kilometers" : "72974032",
          "miles" : "45343964"
        },
        "orbiting_body" : "Earth"
      } ],
      "orbital_data" : {
        "orbit_id" : "13",
        "orbit_determination_date" : "2017-09-22 06:49:27",
        "orbit_uncertainty" : "0",
        "minimum_orbit_intersection" : ".0603535",
        "jupiter_tisserand_invariant" : "4.563",
        "epoch_osculation" : "2458000.5",
        "eccentricity" : ".5001155695352196",
        "semi_major_axis" : "1.421901717772321",
        "inclination" : "3.801662655952979",
        "ascending_node_longitude" : "90.62121259241472",
        "orbital_period" : "619.3024458368876",
        "perihelion_distance" : ".7107865303655095",
        "perihelion_argument" : "161.1092440727751",
        "aphelion_distance" : "2.133016905179132",
        "perihelion_time" : "2457921.682995845459",
        "mean_anomaly" : "45.81625938404274",
        "mean_motion" : ".5812991736428845",
        "equinox" : "J2000"
      }
    } ]
  }
}